[{"OBJECT_NAME":"STARLINK-34886","OBJECT_ID":"2025-212H","EPOCH":"2025-12-15T19:27:49.215456","MEAN_MOTION":15.30185471,"ECCENTRICITY":0.00012008,"INCLINATION":53.1612,"RA_OF_ASC_NODE":15.1224,"ARG_OF_PERICENTER":93.5589,"MEAN_ANOMALY":266.5549,"EPHEMERIS_TYPE":0,"CLASSIFICATION_TYPE":"U","NORAD_CAT_ID":65683,"ELEMENT_SET_NO":999,"REV_AT_EPOCH":1435,"BSTAR":0.00030375026,"MEAN_MOTION_DOT":8.644e-5,"MEAN_MOTION_DDOT":0},{"OBJECT_NAME":"STARLINK-34795","OBJECT_ID":"2025-212J","EPOCH":"2025-12-15T12:06:25.800192","MEAN_MOTION":15.30216254,"ECCENTRICITY":0.0001015,"INCLINATION":53.1593,"RA_OF_ASC_NODE":16.7675,"ARG_OF_PERICENTER":94.4222,"MEAN_ANOMALY":265.6895,"EPHEMERIS_TYPE":0,"CLASSIFICATION_TYPE":"U","NORAD_CAT_ID":65684,"ELEMENT_SET_NO":999,"REV_AT_EPOCH":1430,"BSTAR":0.00057750804,"MEAN_MOTION_DOT":0.00016792,"MEAN_MOTION_DDOT":0},{"OBJECT_NAME":"STARLINK-35145","OBJECT_ID":"2025-212K","EPOCH":"2025-12-15T18:50:00.004128","MEAN_MOTION":15.30199834,"ECCENTRICITY":0.00016988,"INCLINATION":53.1609,"RA_OF_ASC_NODE":15.6681,"ARG_OF_PERICENTER":84.8045,"MEAN_ANOMALY":275.315,"EPHEMERIS_TYPE":0,"CLASSIFICATION_TYPE":"U","NORAD_CAT_ID":65685,"ELEMENT_SET_NO":999,"REV_AT_EPOCH":1434,"BSTAR":0.00040810599,"MEAN_MOTION_DOT":0.00011747,"MEAN_MOTION_DDOT":0},{"OBJECT_NAME":"STARLINK-35137","OBJECT_ID":"2025-212L","EPOCH":"2025-12-15T18:59:03.016032","MEAN_MOTION":15.39638245,"ECCENTRICITY":0.00013299,"INCLINATION":53.1615,"RA_OF_ASC_NODE":10.6895,"ARG_OF_PERICENTER":93.3578,"MEAN_ANOMALY":266.7579,"EPHEMERIS_TYPE":0,"CLASSIFICATION_TYPE":"U","NORAD_CAT_ID":65686,"ELEMENT_SET_NO":999,"REV_AT_EPOCH":1441,"BSTAR":0.00053082649,"MEAN_MOTION_DOT":0.00020904,"MEAN_MOTION_DDOT":0},{"OBJECT_NAME":"STARLINK-34856","OBJECT_ID":"2025-212M","EPOCH":"2025-12-15T19:23:15.908064","MEAN_MOTION":15.30218025,"ECCENTRICITY":0.00014258,"INCLINATION":53.1618,"RA_OF_ASC_NODE":15.1001,"ARG_OF_PERICENTER":95.8847,"MEAN_ANOMALY":264.2316,"EPHEMERIS_TYPE":0,"CLASSIFICATION_TYPE":"U","NORAD_CAT_ID":65687,"ELEMENT_SET_NO":999,"REV_AT_EPOCH":1435,"BSTAR":0.00055450805,"MEAN_MOTION_DOT":0.00016108,"MEAN_MOTION_DDOT":0},{"OBJECT_NAME":"STARLINK-34930","OBJECT_ID":"2025-212N","EPOCH":"2025-12-15T08:38:34.225440","MEAN_MOTION":15.30218949,"ECCENTRICITY":0.000149,"INCLINATION":53.1604,"RA_OF_ASC_NODE":17.2832,"ARG_OF_PERICENTER":79.8826,"MEAN_ANOMALY":280.2343,"EPHEMERIS_TYPE":0,"CLASSIFICATION_TYPE":"U","NORAD_CAT_ID":65688,"ELEMENT_SET_NO":999,"REV_AT_EPOCH":1433,"BSTAR":0.00067983614,"MEAN_MOTION_DOT":0.00019841,"MEAN_MOTION_DDOT":0},{"OBJECT_NAME":"STARLINK-34875","OBJECT_ID":"2025-212P","EPOCH":"2025-12-15T09:16:34.408704","MEAN_MOTION":15.30193906,"ECCENTRICITY":0.00013544,"INCLINATION":53.1598,"RA_OF_ASC_NODE":17.4485,"ARG_OF_PERICENTER":91.4595,"MEAN_ANOMALY":268.6561,"EPHEMERIS_TYPE":0,"CLASSIFICATION_TYPE":"U","NORAD_CAT_ID":65689,"ELEMENT_SET_NO":999,"REV_AT_EPOCH":1433,"BSTAR":0.00067416425,"MEAN_MOTION_DOT":0.00019657,"MEAN_MOTION_DDOT":0},{"OBJECT_NAME":"STARLINK-34790","OBJECT_ID":"2025-212Q","EPOCH":"2025-12-15T18:36:18.402336","MEAN_MOTION":15.302167,"ECCENTRICITY":0.00018831,"INCLINATION":53.1595,"RA_OF_ASC_NODE":15.6105,"ARG_OF_PERICENTER":113.0584,"MEAN_ANOMALY":247.0616,"EPHEMERIS_TYPE":0,"CLASSIFICATION_TYPE":"U","NORAD_CAT_ID":65690,"ELEMENT_SET_NO":999,"REV_AT_EPOCH":1434,"BSTAR":0.0014364634,"MEAN_MOTION_DOT":0.00042451,"MEAN_MOTION_DDOT":0},{"OBJECT_NAME":"STARLINK-34691","OBJECT_ID":"2025-212R","EPOCH":"2025-12-15T18:12:14.698080","MEAN_MOTION":15.39642825,"ECCENTRICITY":0.00016571,"INCLINATION":53.1604,"RA_OF_ASC_NODE":10.4842,"ARG_OF_PERICENTER":90.9119,"MEAN_ANOMALY":269.2076,"EPHEMERIS_TYPE":0,"CLASSIFICATION_TYPE":"U","NORAD_CAT_ID":65691,"ELEMENT_SET_NO":999,"REV_AT_EPOCH":1446,"BSTAR":0.00093289174,"MEAN_MOTION_DOT":0.00037125,"MEAN_MOTION_DDOT":0},{"OBJECT_NAME":"STARLINK-34825","OBJECT_ID":"2025-212S","EPOCH":"2025-12-15T08:47:41.391456","MEAN_MOTION":15.30204763,"ECCENTRICITY":0.0001666,"INCLINATION":53.1597,"RA_OF_ASC_NODE":17.323,"ARG_OF_PERICENTER":54.5484,"MEAN_ANOMALY":305.5672,"EPHEMERIS_TYPE":0,"CLASSIFICATION_TYPE":"U","NORAD_CAT_ID":65692,"ELEMENT_SET_NO":999,"REV_AT_EPOCH":1432,"BSTAR":0.0006595794,"MEAN_MOTION_DOT":0.00019229,"MEAN_MOTION_DDOT":0},{"OBJECT_NAME":"STARLINK-35060","OBJECT_ID":"2025-212T","EPOCH":"2025-12-15T18:38:59.492544","MEAN_MOTION":15.39642942,"ECCENTRICITY":0.00014447,"INCLINATION":53.1608,"RA_OF_ASC_NODE":10.6018,"ARG_OF_PERICENTER":100.3435,"MEAN_ANOMALY":259.7732,"EPHEMERIS_TYPE":0,"CLASSIFICATION_TYPE":"U","NORAD_CAT_ID":65693,"ELEMENT_SET_NO":999,"REV_AT_EPOCH":1446,"BSTAR":0.0011122395,"MEAN_MOTION_DOT":0.00044382,"MEAN_MOTION_DDOT":0},{"OBJECT_NAME":"STARLINK-35204","OBJECT_ID":"2025-212U","EPOCH":"2025-12-15T09:02:52.482912","MEAN_MOTION":15.30226331,"ECCENTRICITY":0.0001481,"INCLINATION":53.1597,"RA_OF_ASC_NODE":17.3908,"ARG_OF_PERICENTER":101.0744,"MEAN_ANOMALY":259.0423,"EPHEMERIS_TYPE":0,"CLASSIFICATION_TYPE":"U","NORAD_CAT_ID":65694,"ELEMENT_SET_NO":999,"REV_AT_EPOCH":1434,"BSTAR":0.00065824376,"MEAN_MOTION_DOT":0.00019202,"MEAN_MOTION_DDOT":0},{"OBJECT_NAME":"STARLINK-35221","OBJECT_ID":"2025-212V","EPOCH":"2025-12-15T19:32:22.928928","MEAN_MOTION":15.30213326,"ECCENTRICITY":0.00014117,"INCLINATION":53.1606,"RA_OF_ASC_NODE":15.1378,"ARG_OF_PERICENTER":79.4284,"MEAN_ANOMALY":280.6876,"EPHEMERIS_TYPE":0,"CLASSIFICATION_TYPE":"U","NORAD_CAT_ID":65695,"ELEMENT_SET_NO":999,"REV_AT_EPOCH":1441,"BSTAR":0.00066333379,"MEAN_MOTION_DOT":0.00019346,"MEAN_MOTION_DDOT":0},{"OBJECT_NAME":"STARLINK-34734","OBJECT_ID":"2025-212W","EPOCH":"2025-12-15T19:14:08.743776","MEAN_MOTION":15.30208932,"ECCENTRICITY":0.00012534,"INCLINATION":53.1627,"RA_OF_ASC_NODE":15.0583,"ARG_OF_PERICENTER":77.3572,"MEAN_ANOMALY":282.7569,"EPHEMERIS_TYPE":0,"CLASSIFICATION_TYPE":"U","NORAD_CAT_ID":65696,"ELEMENT_SET_NO":999,"REV_AT_EPOCH":1440,"BSTAR":0.0006172848,"MEAN_MOTION_DOT":0.00017972,"MEAN_MOTION_DDOT":0},{"OBJECT_NAME":"STARLINK-35113","OBJECT_ID":"2025-212X","EPOCH":"2025-12-15T18:58:57.138240","MEAN_MOTION":15.30207746,"ECCENTRICITY":0.00015037,"INCLINATION":53.1611,"RA_OF_ASC_NODE":14.9902,"ARG_OF_PERICENTER":86.915,"MEAN_ANOMALY":273.2023,"EPHEMERIS_TYPE":0,"CLASSIFICATION_TYPE":"U","NORAD_CAT_ID":65697,"ELEMENT_SET_NO":999,"REV_AT_EPOCH":1440,"BSTAR":0.00066226241,"MEAN_MOTION_DOT":0.00019311,"MEAN_MOTION_DDOT":0},{"OBJECT_NAME":"STARLINK-35090","OBJECT_ID":"2025-212Y","EPOCH":"2025-12-15T08:55:16.957920","MEAN_MOTION":15.30198441,"ECCENTRICITY":0.00011949,"INCLINATION":53.1589,"RA_OF_ASC_NODE":17.3549,"ARG_OF_PERICENTER":98.9006,"MEAN_ANOMALY":261.213,"EPHEMERIS_TYPE":0,"CLASSIFICATION_TYPE":"U","NORAD_CAT_ID":65698,"ELEMENT_SET_NO":999,"REV_AT_EPOCH":1433,"BSTAR":0.00037379269,"MEAN_MOTION_DOT":0.00010727,"MEAN_MOTION_DDOT":0}]
