STARLINK-34886          
1 65683U 25212H   25349.81098629  .00008644  00000+0  30375-3 0  9998
2 65683  53.1612  15.1224 0001200  93.5589 266.5549 15.30185471 14350
STARLINK-34795          
1 65684U 25212J   25349.50446528  .00016792  00000+0  57751-3 0  9990
2 65684  53.1593  16.7675 0001015  94.4222 265.6895 15.30216254 14307
STARLINK-35145          
1 65685U 25212K   25349.78472227  .00011747  00000+0  40811-3 0  9990
2 65685  53.1609  15.6681 0001698  84.8045 275.3150 15.30199834 14344
STARLINK-35137          
1 65686U 25212L   25349.79100713  .00020904  00000+0  53083-3 0  9990
2 65686  53.1615  10.6895 0001329  93.3578 266.7579 15.39638245 14411
STARLINK-34856          
1 65687U 25212M   25349.80782301  .00016108  00000+0  55451-3 0  9994
2 65687  53.1618  15.1001 0001425  95.8847 264.2316 15.30218025 14353
STARLINK-34930          
1 65688U 25212N   25349.36011835  .00019841  00000+0  67984-3 0  9994
2 65688  53.1604  17.2832 0001490  79.8826 280.2343 15.30218949 14336
STARLINK-34875          
1 65689U 25212P   25349.38650936  .00019657  00000+0  67416-3 0  9993
2 65689  53.1598  17.4485 0001354  91.4595 268.6561 15.30193906 14334
STARLINK-34790          
1 65690U 25212Q   25349.77521299  .00042451  00000+0  14365-2 0  9999
2 65690  53.1595  15.6105 0001883 113.0584 247.0616 15.30216700 14349
STARLINK-34691          
1 65691U 25212R   25349.75850345  .00037125  00000+0  93289-3 0  9990
2 65691  53.1604  10.4842 0001657  90.9119 269.2076 15.39642825 14467
STARLINK-34825          
1 65692U 25212S   25349.36645129  .00019229  00000+0  65958-3 0  9997
2 65692  53.1597  17.3230 0001666  54.5484 305.5672 15.30204763 14324
STARLINK-35060          
1 65693U 25212T   25349.77707746  .00044382  00000+0  11122-2 0  9998
2 65693  53.1608  10.6018 0001444 100.3435 259.7732 15.39642942 14464
STARLINK-35204          
1 65694U 25212U   25349.37699633  .00019202  00000+0  65824-3 0  9992
2 65694  53.1597  17.3908 0001481 101.0744 259.0423 15.30226331 14344
STARLINK-35221          
1 65695U 25212V   25349.81415427  .00019346  00000+0  66333-3 0  9994
2 65695  53.1606  15.1378 0001411  79.4284 280.6876 15.30213326 14413
STARLINK-34734          
1 65696U 25212W   25349.80149009  .00017972  00000+0  61728-3 0  9990
2 65696  53.1627  15.0583 0001253  77.3572 282.7569 15.30208932 14403
STARLINK-35113          
1 65697U 25212X   25349.79093910  .00019311  00000+0  66226-3 0  9995
2 65697  53.1611  14.9902 0001503  86.9150 273.2023 15.30207746 14408
STARLINK-35090          
1 65698U 25212Y   25349.37172405  .00010727  00000+0  37379-3 0  9996
2 65698  53.1589  17.3549 0001194  98.9006 261.2130 15.30198441 14335
